[{"OBJECT_NAME":"STARLINK-1727","OBJECT_ID":"2020-062L","EPOCH":"2026-03-09T12:00:01.999296","MEAN_MOTION":15.68639872,"ECCENTRICITY":0.0003939,"INCLINATION":53.0432,"RA_OF_ASC_NODE":337.1419,"ARG_OF_PERICENTER":313.9108,"MEAN_ANOMALY":6.0762,"EPHEMERIS_TYPE":0,"CLASSIFICATION_TYPE":"U","NORAD_CAT_ID":46335,"ELEMENT_SET_NO":999,"REV_AT_EPOCH":597,"BSTAR":0.0010154,"MEAN_MOTION_DOT":0.00118866,"MEAN_MOTION_DDOT":0},{"OBJECT_NAME":"STARLINK-11117 [DTC]","OBJECT_ID":"2024-091J","EPOCH":"2026-03-09T13:17:20.494752","MEAN_MOTION":15.69704614,"ECCENTRICITY":0.000106,"INCLINATION":53.1576,"RA_OF_ASC_NODE":206.8111,"ARG_OF_PERICENTER":58.1354,"MEAN_ANOMALY":301.9767,"EPHEMERIS_TYPE":0,"CLASSIFICATION_TYPE":"U","NORAD_CAT_ID":59761,"ELEMENT_SET_NO":999,"REV_AT_EPOCH":10549,"BSTAR":-2.0612e-6,"MEAN_MOTION_DOT":-8.38e-6,"MEAN_MOTION_DDOT":0}]
